CELTEE 1                
1 41850U 16067C   26068.55062269  .00007714  00000+0  37656-3 0  9993
2 41850  98.0813 288.3139 0000948 135.7027 224.4281 15.18591912510752
2024-174A               
1 61238U 24174A   26068.73892799  .00005060  00000+0  24396-3 0  9991
2 61238  97.4523  77.8721 0001402  95.7936 264.3459 15.19157836 80580
