[{"OBJECT_NAME":"CELTEE 1","OBJECT_ID":"2016-067C","EPOCH":"2026-03-09T13:12:53.800416","MEAN_MOTION":15.18591912,"ECCENTRICITY":9.481e-5,"INCLINATION":98.0813,"RA_OF_ASC_NODE":288.3139,"ARG_OF_PERICENTER":135.7027,"MEAN_ANOMALY":224.4281,"EPHEMERIS_TYPE":0,"CLASSIFICATION_TYPE":"U","NORAD_CAT_ID":41850,"ELEMENT_SET_NO":999,"REV_AT_EPOCH":51075,"BSTAR":0.00037655769,"MEAN_MOTION_DOT":7.714e-5,"MEAN_MOTION_DDOT":0},{"OBJECT_NAME":"OBJECT A","OBJECT_ID":"2024-174A","EPOCH":"2026-03-09T17:44:03.378336","MEAN_MOTION":15.19157836,"ECCENTRICITY":0.00014022,"INCLINATION":97.4523,"RA_OF_ASC_NODE":77.8721,"ARG_OF_PERICENTER":95.7936,"MEAN_ANOMALY":264.3459,"EPHEMERIS_TYPE":0,"CLASSIFICATION_TYPE":"U","NORAD_CAT_ID":61238,"ELEMENT_SET_NO":999,"REV_AT_EPOCH":8058,"BSTAR":0.00024396244,"MEAN_MOTION_DOT":5.06e-5,"MEAN_MOTION_DDOT":0}]
